NORAD_CAT_ID,OBJECT_NAME,OBJECT_TYPE,EPOCH,MEAN_MOTION,ECCENTRICITY,INCLINATION,RA_OF_ASC_NODE,ARG_OF_PERICENTER,MEAN_ANOMALY,BSTAR,MEAN_MOTION_DOT,MEAN_MOTION_DDOT,TLE_LINE0,TLE_LINE1,TLE_LINE2,SEMIMAJOR_AXIS,PERIOD,APOGEE,PERIGEE,DECAYED
55319.0,STARLINK-5196,PAYLOAD,2023-05-26 22:16:14,15.69920865,0.0003758,69.9985,70.7235,271.8785,88.1981,7.151e-06,6.47e-06,0.0,0 STARLINK-5196,1 55319U 23010BC  23146.92794965  .00000647  00000-0  71510-5 0  9992,2 55319  69.9985  70.7235 0003758 271.8785  88.1981 15.69920865 21690,6737.26,91.724,361.657,356.594,0.0
55319.0,STARLINK-5196,PAYLOAD,2023-05-27 04:23:14,15.699274,0.0003522,69.9983,70.0084,257.5327,102.5475,1.8528e-05,2.016e-05,0.0,0 STARLINK-5196,1 55319U 23010BC  23147.18281030  .00002016  00000-0  18528-4 0  9996,2 55319  69.9983  70.0084 0003522 257.5327 102.5475 15.69927400 20549,6737.242,91.724,361.48,356.734,0.0
55319.0,STARLINK-5196,PAYLOAD,2023-05-27 21:12:31,15.69932751,0.0003452,69.9977,68.0361,262.4763,97.6041,3.9324e-06,2.6e-06,0.0,0 STARLINK-5196,1 55319U 23010BC  23147.88369358  .00000260  00000-0  39324-5 0  9990,2 55319  69.9977  68.0361 0003452 262.4763  97.6041 15.69932751 21840,6737.226,91.724,361.417,356.766,0.0
55319.0,STARLINK-5196,PAYLOAD,2023-05-28 04:51:17,15.69926288,0.0003512,69.9983,67.1398,265.7594,94.3201,5.3131e-06,4.26e-06,0.0,0 STARLINK-5196,1 55319U 23010BC  23148.20228058  .00000426  00000-0  53131-5 0  9994,2 55319  69.9983  67.1398 0003512 265.7594  94.3201 15.69926288 20706,6737.245,91.724,361.476,356.744,0.0
55319.0,STARLINK-5196,PAYLOAD,2023-05-28 21:40:33,15.69926814,0.0003551,69.9985,65.1696,264.4772,95.6018,6.9947e-06,6.28e-06,0.0,0 STARLINK-5196,1 55319U 23010BC  23148.90316393  .00000628  00000-0  69947-5 0  9997,2 55319  69.9985  65.1696 0003551 264.4772  95.6018 15.69926814 22004,6737.243,91.724,361.501,356.716,0.0
55319.0,STARLINK-5196,PAYLOAD,2023-05-29 03:47:33,15.69927411,0.0003384,69.9987,64.4541,266.5323,93.5486,8.1378e-06,7.66e-06,0.0,0 STARLINK-5196,1 55319U 23010BC  23149.15803037  .00000766  00000-0  81378-5 0  9996,2 55319  69.9987  64.4541 0003384 266.5323  93.5486 15.69927411 22040,6737.242,91.724,361.387,356.827,0.0
55319.0,STARLINK-5196,PAYLOAD,2023-05-29 17:33:20,15.69922472,0.0002948,69.9983,62.8404,266.5271,93.5588,3.9411e-06,2.61e-06,0.0,0 STARLINK-5196,1 55319U 23010BC  23149.73148524  .00000261  00000-0  39411-5 0  9994,2 55319  69.9983  62.8404 0002948 266.5271  93.5588 15.69922472 20945,6737.256,91.724,361.107,357.135,0.0
55319.0,STARLINK-5196,PAYLOAD,2023-05-29 20:36:50,15.69923129,0.0003171,70.0003,62.4844,263.4301,96.6534,5.6166e-06,4.63e-06,0.0,0 STARLINK-5196,1 55319U 23010BC  23149.85891935  .00000463  00000-0  56166-5 0  9998,2 55319  70.0003  62.4844 0003171 263.4301  96.6534 15.69923129 22154,6737.254,91.724,361.255,356.983,0.0
55319.0,STARLINK-5196,PAYLOAD,2023-05-30 04:15:37,15.69910032,0.0003298,69.9988,61.587,271.4594,88.6224,-7.9022e-06,-1.162e-05,0.0,0 STARLINK-5196,1 55319U 23010BC  23150.17751183 -.00001162  00000-0 -79022-5 0  9990,2 55319  69.9988  61.5870 0003298 271.4594  88.6224 15.69910032 21015,6737.291,91.725,361.378,356.934,0.0
55319.0,STARLINK-5196,PAYLOAD,2023-05-30 21:04:52,15.69926808,0.0003639,69.9969,59.6132,270.6154,89.4625,6.9563e-06,6.24e-06,0.0,0 STARLINK-5196,1 55319U 23010BC  23150.87838246  .00000624  00000-0  69563-5 0  9992,2 55319  69.9969  59.6132 0003639 270.6154  89.4625 15.69926808 22311,6737.243,91.724,361.56,356.657,0.0
55319.0,STARLINK-5196,PAYLOAD,2023-05-31 01:40:07,15.69929833,0.0003232,69.9985,59.0789,259.4904,100.5928,1.3752e-05,1.441e-05,0.0,0 STARLINK-5196,1 55319U 23010BC  23151.06952967  .00001441  00000-0  13752-4 0  9997,2 55319  69.9985  59.0789 0003232 259.4904 100.5928 15.69929833 21151,6737.235,91.724,361.277,356.922,0.0
55319.0,STARLINK-5196,PAYLOAD,2023-05-31 03:11:52,15.6992967,0.0003465,69.9979,58.8995,262.6384,97.4418,1.2015e-05,1.232e-05,0.0,0 STARLINK-5196,1 55319U 23010BC  23151.13324701  .00001232  00000-0  12015-4 0  9993,2 55319  69.9979  58.8995 0003465 262.6384  97.4418 15.69929670 22356,6737.235,91.724,361.435,356.766,0.0
55319.0,STARLINK-5196,PAYLOAD,2023-05-31 18:29:24,15.6992328,0.0003586,69.9981,57.1087,266.9488,93.1297,4.6518e-06,3.46e-06,0.0,0 STARLINK-5196,1 55319U 23010BC  23151.77042060  .00000346  00000-0  46518-5 0  9999,2 55319  69.9981  57.1087 0003586 266.9488  93.1297 15.69923280 21267,6737.253,91.724,361.534,356.703,0.0
55319.0,STARLINK-5196,PAYLOAD,2023-05-31 20:01:09,15.69924314,0.0003525,69.9984,56.9297,265.7496,94.3297,7.2787e-06,6.62e-06,0.0,0 STARLINK-5196,1 55319U 23010BC  23151.83413587  .00000662  00000-0  72787-5 0  9990,2 55319  69.9984  56.9297 0003525 265.7496  94.3297 15.69924314 22464,6737.251,91.724,361.49,356.741,0.0
55319.0,STARLINK-5196,PAYLOAD,2023-06-01 02:08:09,15.69933401,0.0002938,69.9986,56.2122,259.1281,100.9584,1.3389e-05,1.398e-05,0.0,0 STARLINK-5196,1 55319U 23010BC  23152.08899660  .00001398  00000-0  13389-4 0  9997,2 55319  69.9986  56.2122 0002938 259.1281 100.9584 15.69933401 21315,6737.225,91.724,361.069,357.11,0.0
55319.0,STARLINK-5196,PAYLOAD,2023-06-01 03:39:55,15.69915009,0.0003146,69.9984,56.0327,268.1767,91.9069,-8.0677e-06,-1.182e-05,0.0,0 STARLINK-5196,1 55319U 23010BC  23152.15272818 -.00001182  00000-0 -80677-5 0  9993,2 55319  69.9984  56.0327 0003146 268.1767  91.9069 15.69915009 22513,6737.277,91.725,361.262,357.023,0.0
55319.0,STARLINK-5196,PAYLOAD,2023-06-02 02:36:11,15.6992569,0.0003606,69.999,53.3462,276.4247,83.6538,8.0249e-06,7.52e-06,0.0,0 STARLINK-5196,1 55319U 23010BC  23153.10846786  .00000752  00000-0  80249-5 0  9995,2 55319  69.9990  53.3462 0003606 276.4247  83.6538 15.69925690 21476,6737.247,91.724,361.541,356.682,0.0
55319.0,STARLINK-5196,PAYLOAD,2023-06-02 04:07:57,15.69923692,0.0003266,69.9985,53.1686,285.04,75.0434,1.3746e-06,-4.7e-07,0.0,0 STARLINK-5196,1 55319U 23010BC  23153.17218830 -.00000047  00000-0  13746-5 0  9991,2 55319  69.9985  53.1686 0003266 285.0400  75.0434 15.69923692 22678,6737.252,91.724,361.318,356.917,0.0
55319.0,STARLINK-5196,PAYLOAD,2023-06-02 17:53:43,15.69919259,0.0003711,69.9987,51.5568,287.5271,72.5519,1.3105e-05,1.363e-05,0.0,0 STARLINK-5196,1 55319U 23010BC  23153.74564163  .00001363  00000-0  13105-4 0  9996,2 55319  69.9987  51.5568 0003711 287.5271  72.5519 15.69919259 21577,6737.265,91.724,361.63,356.63,0.0
55319.0,STARLINK-5196,PAYLOAD,2023-06-02 20:57:13,15.69923281,0.000385,69.9972,51.195,278.6694,81.4066,1.5555e-07,-1.94e-06,0.0,0 STARLINK-5196,1 55319U 23010BC  23153.87307442 -.00000194  00000-0  15555-6 0  9990,2 55319  69.9972  51.1950 0003850 278.6694  81.4066 15.69923281 22786,6737.253,91.724,361.712,356.525,0.0
55319.0,STARLINK-5196,PAYLOAD,2023-06-03 03:04:13,15.69927926,0.0003664,69.999,50.4793,274.4809,85.5968,1.4392e-05,1.518e-05,0.0,0 STARLINK-5196,1 55319U 23010BC  23154.12793551  .00001518  00000-0  14392-4 0  9995,2 55319  69.9990  50.4793 0003664 274.4809  85.5968 15.69927926 21637,6737.24,91.724,361.574,356.637,0.0
55319.0,STARLINK-5196,PAYLOAD,2023-06-03 19:53:30,15.69920831,0.0003335,69.9996,48.51,268.619,91.4624,3.8275e-05,4.391e-05,0.0,0 STARLINK-5196,1 55319U 23010BC  23154.82882297  .00004391  00000-0  38275-4 0  9996,2 55319  69.9996  48.5100 0003335 268.6190  91.4624 15.69920831 22933,6737.261,91.724,361.372,356.879,0.0
55319.0,STARLINK-5196,PAYLOAD,2023-06-04 02:00:30,15.69925426,0.0003338,69.9996,47.7939,266.1185,93.9629,1.8882e-05,2.058e-05,0.0,0 STARLINK-5196,1 55319U 23010BC  23155.08368837  .00002058  00000-0  18882-4 0  9994,2 55319  69.9996  47.7939 0003338 266.1185  93.9629 15.69925426 21783,6737.247,91.724,361.361,356.863,0.0
55319.0,STARLINK-5196,PAYLOAD,2023-06-04 05:04:01,15.69923355,0.0003405,69.9992,47.4353,267.5318,92.5488,1.2962e-05,1.346e-05,0.0,0 STARLINK-5196,1 55319U 23010BC  23155.21112281  .00001346  00000-0  12962-4 0  9991,2 55319  69.9992  47.4353 0003405 267.5318  92.5488 15.69923355 22995,6737.253,91.724,361.412,356.824,0.0
55319.0,STARLINK-5196,PAYLOAD,2023-06-04 18:49:46,15.69937449,0.0003347,70.0009,45.8215,268.8156,91.2657,4.5786e-05,5.299e-05,0.0,0 STARLINK-5196,1 55319U 23010BC  23155.78456346  .00005299  00000-0  45786-4 0  9997,2 55319  70.0009  45.8215 0003347 268.8156  91.2657 15.69937449 21896,6737.213,91.723,361.333,356.823,0.0
55319.0,STARLINK-5196,PAYLOAD,2023-06-04 20:21:32,15.69911967,0.000368,69.9991,45.6438,272.53,87.5474,-1.8369e-05,-2.42e-05,0.0,0 STARLINK-5196,1 55319U 23010BC  23155.84829277 -.00002420  00000-0 -18369-4 0  9993,2 55319  69.9991  45.6438 0003680 272.5300  87.5474 15.69911967 23097,6737.286,91.725,361.63,356.672,0.0
55319.0,STARLINK-5196,PAYLOAD,2023-06-05 04:00:18,15.69909458,0.0003247,69.9998,44.7486,269.8959,90.1864,-2.184e-05,-2.836e-05,0.0,0 STARLINK-5196,1 55319U 23010BC  23156.16687965 -.00002836  00000-0 -21840-4 0  9994,2 55319  69.9998  44.7486 0003247 269.8959  90.1864 15.69909458 21953,6737.293,91.725,361.346,356.97,0.0
55319.0,STARLINK-5196,PAYLOAD,2023-06-05 17:46:03,15.69923375,0.0003872,69.9993,43.1363,272.3486,87.7267,3.3789e-06,1.93e-06,0.0,0 STARLINK-5196,1 55319U 23010BC  23156.74032326  .00000193  00000-0  33789-5 0  9991,2 55319  69.9993  43.1363 0003872 272.3486  87.7267 15.69923375 22047,6737.253,91.724,361.727,356.51,0.0
55319.0,STARLINK-5196,PAYLOAD,2023-06-05 19:17:49,15.69925919,0.0003606,70.0002,42.9563,271.689,88.3893,1.3373e-05,1.396e-05,0.0,0 STARLINK-5196,1 55319U 23010BC  23156.80403996  .00001396  00000-0  13373-4 0  9995,2 55319  70.0002  42.9563 0003606 271.6890  88.3893 15.69925919 23247,6737.246,91.724,361.54,356.681,0.0
55319.0,STARLINK-5196,PAYLOAD,2023-06-05 23:53:04,15.69933542,0.0003547,69.9997,42.4195,271.2904,88.7885,2.5202e-05,2.82e-05,0.0,0 STARLINK-5196,1 55319U 23010BC  23156.99518586  .00002820  00000-0  25202-4 0  9994,2 55319  69.9997  42.4195 0003547 271.2904  88.7885 15.69933542 22086,6737.224,91.724,361.479,356.699,0.0
